[{"OBJECT_NAME":"STARLINK-32041","OBJECT_ID":"2024-124V","EPOCH":"2026-03-09T22:32:19.884192","MEAN_MOTION":15.3013352,"ECCENTRICITY":0.00019628,"INCLINATION":53.1606,"RA_OF_ASC_NODE":321.3546,"ARG_OF_PERICENTER":100.2545,"MEAN_ANOMALY":259.8677,"EPHEMERIS_TYPE":0,"CLASSIFICATION_TYPE":"U","NORAD_CAT_ID":60202,"ELEMENT_SET_NO":999,"REV_AT_EPOCH":9553,"BSTAR":-0.00013205099,"MEAN_MOTION_DOT":-4.26e-5,"MEAN_MOTION_DDOT":0},{"OBJECT_NAME":"FLOCK 4G-5","OBJECT_ID":"2025-009BG","EPOCH":"2026-03-09T10:57:11.608704","MEAN_MOTION":15.28679529,"ECCENTRICITY":0.00020946,"INCLINATION":97.4058,"RA_OF_ASC_NODE":151.2478,"ARG_OF_PERICENTER":314.5072,"MEAN_ANOMALY":45.5996,"EPHEMERIS_TYPE":0,"CLASSIFICATION_TYPE":"U","NORAD_CAT_ID":62663,"ELEMENT_SET_NO":999,"REV_AT_EPOCH":6369,"BSTAR":0.00040688068,"MEAN_MOTION_DOT":0.00011278,"MEAN_MOTION_DDOT":0}]
